{
  "type": "FeatureCollection",
  "features": [
    {
      "type": "Feature",
      "properties": {
        "norad_id": 38755,
        "name": "SPOT 6",
        "group": "resource",
        "lat": -10.105299164784274,
        "lon": -118.72918401868166,
        "alt_km": 702.4518776779669,
        "timestamp": "2025-12-24T03:53:29.299311+00:00",
        "meta_object_name": "SPOT 6",
        "meta_object_id": "2012-047A",
        "meta_epoch": "2025-12-23T20:26:13.009344",
        "meta_mean_motion": 14.58541383,
        "meta_eccentricity": 0.000125,
        "meta_inclination": 98.1558,
        "meta_ra_of_asc_node": 62.4306,
        "meta_arg_of_pericenter": 76.7965,
        "meta_mean_anomaly": 283.3373,
        "meta_ephemeris_type": 0,
        "meta_classification_type": "U",
        "meta_norad_cat_id": 38755,
        "meta_element_set_no": 999,
        "meta_rev_at_epoch": 70749,
        "meta_bstar": 8.9862e-05,
        "meta_mean_motion_dot": 3.72e-06,
        "meta_mean_motion_ddot": 0,
        "tle_line1": "1 38755U 12047A   25357.85153946  .00000372  00000+0  89862-4 0  9993",
        "tle_line2": "2 38755  98.1558  62.4306 0001250  76.7965 283.3373 14.58541383707493"
      },
      "geometry": {
        "type": "Point",
        "coordinates": [
          -118.72918401868166,
          -10.105299164784274
        ]
      }
    },
    {
      "type": "Feature",
      "properties": {
        "norad_id": 39019,
        "name": "PLEIADES 1B",
        "group": "resource",
        "lat": 81.66628714018722,
        "lon": -8.401033574356811,
        "alt_km": 689.5480646761534,
        "timestamp": "2025-12-24T03:53:29.299321+00:00",
        "meta_object_name": "PLEIADES 1B",
        "meta_object_id": "2012-068A",
        "meta_epoch": "2025-12-23T19:15:19.926144",
        "meta_mean_motion": 14.58562888,
        "meta_eccentricity": 0.0001147,
        "meta_inclination": 98.1783,
        "meta_ra_of_asc_node": 70.2791,
        "meta_arg_of_pericenter": 83.9155,
        "meta_mean_anomaly": 276.2175,
        "meta_ephemeris_type": 0,
        "meta_classification_type": "U",
        "meta_norad_cat_id": 39019,
        "meta_element_set_no": 999,
        "meta_rev_at_epoch": 69528,
        "meta_bstar": 0.00013157,
        "meta_mean_motion_dot": 5.66e-06,
        "meta_mean_motion_ddot": 0,
        "tle_line1": "1 39019U 12068A   25357.80231396  .00000566  00000+0  13157-3 0  9999",
        "tle_line2": "2 39019  98.1783  70.2791 0001147  83.9155 276.2175 14.58562888695285"
      },
      "geometry": {
        "type": "Point",
        "coordinates": [
          -8.401033574356811,
          81.66628714018722
        ]
      }
    },
    {
      "type": "Feature",
      "properties": {
        "norad_id": 39030,
        "name": "GOKTURK 2",
        "group": "resource",
        "lat": -82.27194235833531,
        "lon": -76.208123402846,
        "alt_km": 652.4808847410322,
        "timestamp": "2025-12-24T03:53:29.299347+00:00",
        "meta_object_name": "GOKTURK 2",
        "meta_object_id": "2012-073A",
        "meta_epoch": "2025-12-23T20:09:24.676416",
        "meta_mean_motion": 14.75305186,
        "meta_eccentricity": 0.0001378,
        "meta_inclination": 97.6883,
        "meta_ra_of_asc_node": 198.9474,
        "meta_arg_of_pericenter": 106.6841,
        "meta_mean_anomaly": 253.4521,
        "meta_ephemeris_type": 0,
        "meta_classification_type": "U",
        "meta_norad_cat_id": 39030,
        "meta_element_set_no": 999,
        "meta_rev_at_epoch": 69865,
        "meta_bstar": 8.5435e-05,
        "meta_mean_motion_dot": 5.32e-06,
        "meta_mean_motion_ddot": 0,
        "tle_line1": "1 39030U 12073A   25357.83986894  .00000532  00000+0  85435-4 0  9993",
        "tle_line2": "2 39030  97.6883 198.9474 0001378 106.6841 253.4521 14.75305186698651"
      },
      "geometry": {
        "type": "Point",
        "coordinates": [
          -76.208123402846,
          -82.27194235833531
        ]
      }
    },
    {
      "type": "Feature",
      "properties": {
        "norad_id": 39084,
        "name": "LANDSAT 8",
        "group": "resource",
        "lat": -19.072980691979048,
        "lon": -116.79359197381552,
        "alt_km": 707.8352777360133,
        "timestamp": "2025-12-24T03:53:29.299359+00:00",
        "meta_object_name": "LANDSAT 8",
        "meta_object_id": "2013-008A",
        "meta_epoch": "2025-12-23T18:44:24.142272",
        "meta_mean_motion": 14.5711318,
        "meta_eccentricity": 0.0001057,
        "meta_inclination": 98.2057,
        "meta_ra_of_asc_node": 65.6906,
        "meta_arg_of_pericenter": 92.3581,
        "meta_mean_anomaly": 267.7738,
        "meta_ephemeris_type": 0,
        "meta_classification_type": "U",
        "meta_norad_cat_id": 39084,
        "meta_element_set_no": 999,
        "meta_rev_at_epoch": 67235,
        "meta_bstar": 9.5296e-05,
        "meta_mean_motion_dot": 3.84e-06,
        "meta_mean_motion_ddot": 0,
        "tle_line1": "1 39084U 13008A   25357.78083498  .00000384  00000+0  95296-4 0  9994",
        "tle_line2": "2 39084  98.2057  65.6906 0001057  92.3581 267.7738 14.57113180672354"
      },
      "geometry": {
        "type": "Point",
        "coordinates": [
          -116.79359197381552,
          -19.072980691979048
        ]
      }
    },
    {
      "type": "Feature",
      "properties": {
        "norad_id": 39086,
        "name": "SARAL",
        "group": "resource",
        "lat": -80.13799809162524,
        "lon": -57.98542403852988,
        "alt_km": 791.9709943695898,
        "timestamp": "2025-12-24T03:53:29.299370+00:00",
        "meta_object_name": "SARAL",
        "meta_object_id": "2013-009A",
        "meta_epoch": "2025-12-23T18:16:40.382400",
        "meta_mean_motion": 14.32760645,
        "meta_eccentricity": 0.0002965,
        "meta_inclination": 98.5503,
        "meta_ra_of_asc_node": 181.5481,
        "meta_arg_of_pericenter": 87.9726,
        "meta_mean_anomaly": 272.1798,
        "meta_ephemeris_type": 0,
        "meta_classification_type": "U",
        "meta_norad_cat_id": 39086,
        "meta_element_set_no": 999,
        "meta_rev_at_epoch": 67048,
        "meta_bstar": 5.5676e-05,
        "meta_mean_motion_dot": 1.08e-06,
        "meta_mean_motion_ddot": 0,
        "tle_line1": "1 39086U 13009A   25357.76157850  .00000108  00000+0  55676-4 0  9991",
        "tle_line2": "2 39086  98.5503 181.5481 0002965  87.9726 272.1798 14.32760645670486"
      },
      "geometry": {
        "type": "Point",
        "coordinates": [
          -57.98542403852988,
          -80.13799809162524
        ]
      }
    },
    {
      "type": "Feature",
      "properties": {
        "norad_id": 39150,
        "name": "GAOFEN-1",
        "group": "resource",
        "lat": 38.36583949695862,
        "lon": 62.282386342334554,
        "alt_km": 632.977909059814,
        "timestamp": "2025-12-24T03:53:29.299381+00:00",
        "meta_object_name": "GAOFEN-1",
        "meta_object_id": "2013-018A",
        "meta_epoch": "2025-12-23T21:12:37.753920",
        "meta_mean_motion": 14.76497084,
        "meta_eccentricity": 0.0018488,
        "meta_inclination": 97.9315,
        "meta_ra_of_asc_node": 68.3453,
        "meta_arg_of_pericenter": 109.1797,
        "meta_mean_anomaly": 251.1416,
        "meta_ephemeris_type": 0,
        "meta_classification_type": "U",
        "meta_norad_cat_id": 39150,
        "meta_element_set_no": 999,
        "meta_rev_at_epoch": 68237,
        "meta_bstar": 8.6647e-05,
        "meta_mean_motion_dot": 5.54e-06,
        "meta_mean_motion_ddot": 0,
        "tle_line1": "1 39150U 13018A   25357.88377030  .00000554  00000+0  86647-4 0  9997",
        "tle_line2": "2 39150  97.9315  68.3453 0018488 109.1797 251.1416 14.76497084682372"
      },
      "geometry": {
        "type": "Point",
        "coordinates": [
          62.282386342334554,
          38.36583949695862
        ]
      }
    },
    {
      "type": "Feature",
      "properties": {
        "norad_id": 39160,
        "name": "VNREDSAT 1",
        "group": "resource",
        "lat": -14.224390523856115,
        "lon": 55.06248132738853,
        "alt_km": 681.9920332402708,
        "timestamp": "2025-12-24T03:53:29.299391+00:00",
        "meta_object_name": "VNREDSAT 1",
        "meta_object_id": "2013-021B",
        "meta_epoch": "2025-12-23T19:45:37.799424",
        "meta_mean_motion": 14.64938592,
        "meta_eccentricity": 0.0001166,
        "meta_inclination": 97.9356,
        "meta_ra_of_asc_node": 52.7093,
        "meta_arg_of_pericenter": 81.7751,
        "meta_mean_anomaly": 278.3585,
        "meta_ephemeris_type": 0,
        "meta_classification_type": "U",
        "meta_norad_cat_id": 39160,
        "meta_element_set_no": 999,
        "meta_rev_at_epoch": 67461,
        "meta_bstar": 0.00014739,
        "meta_mean_motion_dot": 7.43e-06,
        "meta_mean_motion_ddot": 0,
        "tle_line1": "1 39160U 13021B   25357.82335416  .00000743  00000+0  14739-3 0  9990",
        "tle_line2": "2 39160  97.9356  52.7093 0001166  81.7751 278.3585 14.64938592674612"
      },
      "geometry": {
        "type": "Point",
        "coordinates": [
          55.06248132738853,
          -14.224390523856115
        ]
      }
    }
  ]
}